satname,norad_id,inclination_deg,eccentricity,mean_motion_rev_per_day,perigee_km,apogee_km,l1,l2
STARLINK-1480,45741,53.0552,0.0001456,15.06386199,546.2455194298209,548.2621932471857,1 45741U 20038M   25311.61834462 -.00002090  00000+0 -12149-3 0  9992,2 45741  53.0552  64.6169 0001456  91.1607 268.9548 15.06386199297801
STARLINK-1500,45744,53.0424,0.0001652,15.27892813,480.97926796492357,483.2458944265518,1 45744U 20038Q   25311.49878757  .00027539  00000+0  10070-2 0  9999,2 45744  53.0424  42.8908 0001652 217.6275 142.4608 15.27892813298098
STARLINK-1504,45746,53.029,0.0001633,15.40781427,442.6877644527349,444.9158096605879,1 45746U 20038S   25311.44704648  .00033613  00000+0  81479-3 0  9995,2 45746  53.0290   7.0865 0001633 267.7389  92.3427 15.40781427298586
STARLINK-1506,45747,53.0625,0.0001848,15.21675262,499.51593047913957,502.05838084707284,1 45747U 20038T   25311.54948803  .00025461  00000+0  11220-2 0  9998,2 45747  53.0625  45.4865 0001848 267.5748  92.5037 15.21675262298060
STARLINK-1464,45751,53.056,0.000148,15.0638308,546.2384565252078,548.2883750482806,1 45751U 20038X   25311.48749811 -.00001774  00000+0 -10025-3 0  9990,2 45751  53.0560  45.2045 0001480 104.4283 255.6870 15.06383080298060
STARLINK-1477,45754,53.0556,0.0001824,15.07176382,543.5703306901714,546.0958301755127,1 45754U 20038AA  25311.49965727  .00035868  00000+0  23645-2 0  9990,2 45754  53.0556  45.1210 0001824  21.9351 338.1716 15.07176382298064
STARLINK-1478,45755,53.054,0.0001227,15.06440331,546.2382268881547,547.9376770913732,1 45755U 20038AB  25311.65334762  .00014704  00000+0  10029-2 0  9996,2 45755  53.0540  44.4592 0001227 104.7630 255.3495 15.06440331298072
STARLINK-1484,45756,53.0157,0.0002802,15.62244298,379.2818063374898,383.0697252114287,1 45756U 20038AC  25311.91668980  .00206453  00000+0  22476-2 0  9991,2 45756  53.0157 306.0051 0002802  35.5509 163.9764 15.62244298  5794
STARLINK-1493,45759,53.0536,0.0001537,15.06386883,546.1873276933948,548.3161921982028,1 45759U 20038AF  25311.64232745  .00004629  00000+0  32953-3 0  9993,2 45759  53.0536  44.5071 0001537  89.7361 270.3804 15.06386883298073
STARLINK-1494,45760,53.0558,0.0003301,15.51932101,408.8441987332417,413.3264433095801,1 45760U 20038AG  25311.62159750  .00047376  00000+0  77873-3 0  9993,2 45760  53.0558  27.4240 0003301  30.4787 329.6413 15.51932101298325
STARLINK-1502,45764,53.0576,0.0001331,15.06383678,546.3398124177747,548.1833535205606,1 45764U 20038AL  25311.54279690 -.00002136  00000+0 -12461-3 0  9993,2 45764  53.0576  44.9562 0001331  72.3178 287.7957 15.06383678298078
STARLINK-1470,45772,53.053,0.0003103,15.1819762,509.15011334601695,513.4256904401318,1 45772U 20038AU  25311.60859544  .00034614  00000+0  16793-2 0  9996,2 45772  53.0530  16.5535 0003103 284.4702  75.5948 15.18197620298470
STARLINK-1482,45773,53.0543,0.0001312,15.06430238,546.2102908015149,548.027477945574,1 45773U 20038AV  25311.64044934  .00035763  00000+0  24057-2 0  9998,2 45773  53.0543  24.5177 0001312  82.8803 277.2335 15.06430238298369
STARLINK-1496,45780,53.0548,0.0001354,15.06384264,546.3220882067653,548.1974856566667,1 45780U 20038BC  25311.80634223  .00020446  00000+0  13881-2 0  9995,2 45780  53.0548  23.7728 0001354  78.2476 281.8665 15.06384264298371
STARLINK-1497,45781,53.0388,0.000657,15.5610407,394.49258890956025,403.3976748308378,1 45781U 20038BD  25311.91668980  .00072540  00000+0  10172-2 0  9997,2 45781  53.0388 326.0650 0006570 328.9171 184.9951 15.56104070  5860
STARLINK-1510,45784,53.0319,0.0003459,15.72912805,348.24964180492043,352.904566222076,1 45784U 20038BG  25311.91668980  .00252261  00000+0  17693-2 0  9995,2 45784  53.0319 301.3876 0003459  73.0352  26.5887 15.72912805  5854
STARLINK-1513,45786,53.0564,0.0001302,15.06396496,546.3206154339296,548.1239789949241,1 45786U 20038BJ  25311.63677361  .00000761  00000+0  69991-4 0  9995,2 45786  53.0564  24.5362 0001302  90.1706 269.9432 15.06396496298368
STARLINK-1522,46027,53.0538,0.0001456,15.06412059,546.1662737178158,548.1829244554701,1 46027U 20055A   25311.75010094  .00002005  00000+0  15341-3 0  9992,2 46027  53.0538 314.0223 0001456  96.2094 263.9061 15.06412059290502
STARLINK-1523,46028,53.0544,0.0001432,15.06392711,546.2421846509887,548.2256108761076,1 46028U 20055B   25311.30043845  .00000671  00000+0  63964-4 0  9996,2 46028  53.0544 316.0458 0001432  97.2665 262.8487 15.06392711290457
STARLINK-1526,46029,53.0541,0.0001469,15.06399601,546.1954469332795,548.2301146988839,1 46029U 20055C   25311.29306394  .00002703  00000+0  20030-3 0  9990,2 46029  53.0541 316.0768 0001469  84.2548 275.8609 15.06399601290449
STARLINK-1555,46032,53.0553,0.0001475,15.0640493,546.1749615559202,548.2179349231501,1 46032U 20055F   25311.74274622  .00005136  00000+0  36337-3 0  9992,2 46032  53.0553 314.0582 0001475  92.0303 268.0855 15.06404930290518
STARLINK-1556,46033,53.054,0.0001393,15.06432295,546.1478929163704,548.0772674494092,1 46033U 20055G   25311.45892315  .00016187  00000+0  11021-2 0  9996,2 46033  53.0540 315.3329 0001393  94.5138 265.6010 15.06432295290443
STARLINK-1557,46034,53.0557,0.0001362,15.06396684,546.2784871615258,548.1649548771311,1 46034U 20055H   25311.72800157  .00001040  00000+0  88738-4 0  9993,2 46034  53.0557 314.1268 0001362 109.3585 250.7552 15.06396684290489
STARLINK-1558,46035,53.054,0.0001268,15.06400491,546.3319190880711,548.0881871007368,1 46035U 20055J   25311.73537666  .00001984  00000+0  15206-3 0  9993,2 46035  53.0540 314.0932 0001268 100.9035 259.2096 15.06400491290514
STARLINK-1560,46036,53.0547,0.0001463,15.06406591,546.1781820074984,548.204533084916,1 46036U 20055K   25311.72063882  .00005608  00000+0  39503-3 0  9990,2 46036  53.0547 314.1621 0001463  99.0019 261.1135 15.06406591290518
STARLINK-1567,46038,53.0538,0.0001375,15.06387945,546.2962645164898,548.200745530371,1 46038U 20055M   25311.33361562  .00000448  00000+0  48994-4 0  9997,2 46038  53.0538 315.8952 0001375  93.4696 266.6450 15.06387945290449
STARLINK-1569,46039,53.054,0.0001656,15.06389398,546.0972086297179,548.3908948340522,1 46039U 20055N   25311.34098690  .00001015  00000+0  87088-4 0  9996,2 46039  53.0540 315.8636 0001656  91.0891 269.0287 15.06389398290444
STARLINK-1582,46043,53.0552,0.0001462,15.06392154,546.2231154277815,548.2480943774563,1 46043U 20055S   25311.74643894  .00000900  00000+0  79296-4 0  9991,2 46043  53.0552 314.0405 0001462  92.4964 267.6192 15.06392154290508
